GLOBALSTAR M067         
1 32263U 07048A   25345.64016486 -.00000077  00000+0  15072-3 0  9991
2 32263  51.9720 236.6856 0001804  31.7096 338.2212 12.40682789831513
GLOBALSTAR M070         
1 32264U 07048B   25345.36377512 -.00000072  00000+0  17923-3 0  9993
2 32264  51.9766 308.7467 0000333  69.8087  94.8525 12.62327175836045
GLOBALSTAR M066         
1 32265U 07048C   25345.44338199 -.00000084  00000+0  92767-4 0  9994
2 32265  51.9583 236.8713 0005486  18.5859 152.1267 12.30382905837117
GLOBALSTAR M068         
1 32266U 07048D   25345.67110260 -.00000062  00000+0  23142-3 0  9993
2 32266  51.9870 121.2190 0001797 138.7051 234.8147 12.62835020839981
GLOBALSTAR M079         
1 37188U 10054A   25345.65251341 -.00000081  00000+0  12757-3 0  9997
2 37188  52.0057 319.5537 0000459  14.4382 157.0182 12.62269138698862
GLOBALSTAR M074         
1 37189U 10054B   25345.26884675 -.00000084  00000+0  10977-3 0  9992
2 37189  52.0036 320.0166 0000551  53.2829  53.6083 12.62264045699421
GLOBALSTAR M076         
1 37190U 10054C   25345.30256757 -.00000082  00000+0  12382-3 0  9993
2 37190  52.0047 320.1024 0000613  36.5208 102.5033 12.62267980699142
GLOBALSTAR M077         
1 37191U 10054D   25345.10122653 -.00000066  00000+0  21752-3 0  9992
2 37191  52.0110 297.0721 0000759  14.6610  67.8094 11.68138698699165
